{
  "type": "FeatureCollection",
  "features": [
    {
      "type": "Feature",
      "properties": {
        "norad_id": 66438,
        "name": "STARLINK-34681",
        "group": "last-30-days",
        "lat": 31.124010730462526,
        "lon": -138.30167519789123,
        "alt_km": 410.5735877480938,
        "timestamp": "2025-12-06T18:50:08.954686+00:00",
        "meta_object_name": "STARLINK-34681",
        "meta_object_id": "2025-259S",
        "meta_epoch": "2025-12-05T14:27:08.307936",
        "meta_mean_motion": 15.5065244,
        "meta_eccentricity": 0.00027062,
        "meta_inclination": 43.0006,
        "meta_ra_of_asc_node": 89.0078,
        "meta_arg_of_pericenter": 286.2638,
        "meta_mean_anomaly": 73.7925,
        "meta_ephemeris_type": 0,
        "meta_classification_type": "U",
        "meta_norad_cat_id": 66438,
        "meta_element_set_no": 999,
        "meta_rev_at_epoch": 495,
        "meta_bstar": 0.0024735905,
        "meta_mean_motion_dot": 0.00147941,
        "meta_mean_motion_ddot": 0,
        "tle_line1": "1 66438U 25259S   25339.60217949  .00147941  00000+0  24736-2 0  9999",
        "tle_line2": "2 66438  43.0006  89.0078 0002706 286.2638  73.7925 15.50652440  4957"
      },
      "geometry": {
        "type": "Point",
        "coordinates": [
          -138.30167519789123,
          31.124010730462526
        ]
      }
    },
    {
      "type": "Feature",
      "properties": {
        "norad_id": 66439,
        "name": "STARLINK-35327",
        "group": "last-30-days",
        "lat": 34.354641698350314,
        "lon": -145.07694752142547,
        "alt_km": 409.7733639310791,
        "timestamp": "2025-12-06T18:50:08.954696+00:00",
        "meta_object_name": "STARLINK-35327",
        "meta_object_id": "2025-259T",
        "meta_epoch": "2025-12-06T07:28:57.442944",
        "meta_mean_motion": 15.50638635,
        "meta_eccentricity": 0.00016501,
        "meta_inclination": 43.0005,
        "meta_ra_of_asc_node": 84.8746,
        "meta_arg_of_pericenter": 268.1932,
        "meta_mean_anomaly": 91.8739,
        "meta_ephemeris_type": 0,
        "meta_classification_type": "U",
        "meta_norad_cat_id": 66439,
        "meta_element_set_no": 999,
        "meta_rev_at_epoch": 517,
        "meta_bstar": 0.0033313196,
        "meta_mean_motion_dot": 0.00200608,
        "meta_mean_motion_ddot": 0,
        "tle_line1": "1 66439U 25259T   25340.31177596  .00200608  00000+0  33313-2 0  9994",
        "tle_line2": "2 66439  43.0005  84.8746 0001650 268.1932  91.8739 15.50638635  5174"
      },
      "geometry": {
        "type": "Point",
        "coordinates": [
          -145.07694752142547,
          34.354641698350314
        ]
      }
    },
    {
      "type": "Feature",
      "properties": {
        "norad_id": 66440,
        "name": "STARLINK-35405",
        "group": "last-30-days",
        "lat": 30.00513266638659,
        "lon": -136.21261430752895,
        "alt_km": 410.18050177102486,
        "timestamp": "2025-12-06T18:50:08.954706+00:00",
        "meta_object_name": "STARLINK-35405",
        "meta_object_id": "2025-259U",
        "meta_epoch": "2025-12-05T08:15:37.425888",
        "meta_mean_motion": 15.50623801,
        "meta_eccentricity": 0.00020429,
        "meta_inclination": 43.0001,
        "meta_ra_of_asc_node": 90.5135,
        "meta_arg_of_pericenter": 280.0264,
        "meta_mean_anomaly": 80.0366,
        "meta_ephemeris_type": 0,
        "meta_classification_type": "U",
        "meta_norad_cat_id": 66440,
        "meta_element_set_no": 999,
        "meta_rev_at_epoch": 502,
        "meta_bstar": 0.0023681414,
        "meta_mean_motion_dot": 0.0014135,
        "meta_mean_motion_ddot": 0,
        "tle_line1": "1 66440U 25259U   25339.34418317  .00141350  00000+0  23681-2 0  9991",
        "tle_line2": "2 66440  43.0001  90.5135 0002042 280.0264  80.0366 15.50623801  5024"
      },
      "geometry": {
        "type": "Point",
        "coordinates": [
          -136.21261430752895,
          30.00513266638659
        ]
      }
    },
    {
      "type": "Feature",
      "properties": {
        "norad_id": 66441,
        "name": "STARLINK-35426",
        "group": "last-30-days",
        "lat": 28.84631657708449,
        "lon": -134.15975766964925,
        "alt_km": 410.3571497437142,
        "timestamp": "2025-12-06T18:50:08.954716+00:00",
        "meta_object_name": "STARLINK-35426",
        "meta_object_id": "2025-259V",
        "meta_epoch": "2025-12-05T08:15:07.746624",
        "meta_mean_motion": 15.50636009,
        "meta_eccentricity": 0.00024039,
        "meta_inclination": 43,
        "meta_ra_of_asc_node": 90.5091,
        "meta_arg_of_pericenter": 280.7143,
        "meta_mean_anomaly": 79.3447,
        "meta_ephemeris_type": 0,
        "meta_classification_type": "U",
        "meta_norad_cat_id": 66441,
        "meta_element_set_no": 999,
        "meta_rev_at_epoch": 502,
        "meta_bstar": 0.0027168775,
        "meta_mean_motion_dot": 0.00162736,
        "meta_mean_motion_ddot": 0,
        "tle_line1": "1 66441U 25259V   25339.34383966  .00162736  00000+0  27169-2 0  9999",
        "tle_line2": "2 66441  43.0000  90.5091 0002403 280.7143  79.3447 15.50636009  5024"
      },
      "geometry": {
        "type": "Point",
        "coordinates": [
          -134.15975766964925,
          28.84631657708449
        ]
      }
    },
    {
      "type": "Feature",
      "properties": {
        "norad_id": 66442,
        "name": "STARLINK-34724",
        "group": "last-30-days",
        "lat": 28.14068399148346,
        "lon": -132.9555288785938,
        "alt_km": 410.1806897748438,
        "timestamp": "2025-12-06T18:50:08.954725+00:00",
        "meta_object_name": "STARLINK-34724",
        "meta_object_id": "2025-259W",
        "meta_epoch": "2025-12-05T14:25:39.511200",
        "meta_mean_motion": 15.50629049,
        "meta_eccentricity": 0.0001192,
        "meta_inclination": 43.0002,
        "meta_ra_of_asc_node": 88.9997,
        "meta_arg_of_pericenter": 267.1563,
        "meta_mean_anomaly": 92.9161,
        "meta_ephemeris_type": 0,
        "meta_classification_type": "U",
        "meta_norad_cat_id": 66442,
        "meta_element_set_no": 999,
        "meta_rev_at_epoch": 506,
        "meta_bstar": 0.0020186819,
        "meta_mean_motion_dot": 0.00120132,
        "meta_mean_motion_ddot": 0,
        "tle_line1": "1 66442U 25259W   25339.60115175  .00120132  00000+0  20187-2 0  9991",
        "tle_line2": "2 66442  43.0002  88.9997 0001192 267.1563  92.9161 15.50629049  5066"
      },
      "geometry": {
        "type": "Point",
        "coordinates": [
          -132.9555288785938,
          28.14068399148346
        ]
      }
    },
    {
      "type": "Feature",
      "properties": {
        "norad_id": 66443,
        "name": "STARLINK-35219",
        "group": "last-30-days",
        "lat": 27.041427737065106,
        "lon": -131.14513167174243,
        "alt_km": 410.4905778315606,
        "timestamp": "2025-12-06T18:50:08.954737+00:00",
        "meta_object_name": "STARLINK-35219",
        "meta_object_id": "2025-259X",
        "meta_epoch": "2025-12-05T14:25:09.942528",
        "meta_mean_motion": 15.50625496,
        "meta_eccentricity": 0.00016493,
        "meta_inclination": 43.001,
        "meta_ra_of_asc_node": 88.9968,
        "meta_arg_of_pericenter": 266.7886,
        "meta_mean_anomaly": 93.2786,
        "meta_ephemeris_type": 0,
        "meta_classification_type": "U",
        "meta_norad_cat_id": 66443,
        "meta_element_set_no": 999,
        "meta_rev_at_epoch": 495,
        "meta_bstar": 0.0022130358,
        "meta_mean_motion_dot": 0.00131915,
        "meta_mean_motion_ddot": 0,
        "tle_line1": "1 66443U 25259X   25339.60080952  .00131915  00000+0  22130-2 0  9997",
        "tle_line2": "2 66443  43.0010  88.9968 0001649 266.7886  93.2786 15.50625496  4950"
      },
      "geometry": {
        "type": "Point",
        "coordinates": [
          -131.14513167174243,
          27.041427737065106
        ]
      }
    },
    {
      "type": "Feature",
      "properties": {
        "norad_id": 66444,
        "name": "STARLINK-35360",
        "group": "last-30-days",
        "lat": 23.690706254598815,
        "lon": -126.03681999252656,
        "alt_km": 411.09388623059476,
        "timestamp": "2025-12-06T18:50:08.954749+00:00",
        "meta_object_name": "STARLINK-35360",
        "meta_object_id": "2025-259Y",
        "meta_epoch": "2025-12-05T14:23:40.950528",
        "meta_mean_motion": 15.50633481,
        "meta_eccentricity": 0.00018497,
        "meta_inclination": 43.001,
        "meta_ra_of_asc_node": 88.9878,
        "meta_arg_of_pericenter": 264.6914,
        "meta_mean_anomaly": 95.3736,
        "meta_ephemeris_type": 0,
        "meta_classification_type": "U",
        "meta_norad_cat_id": 66444,
        "meta_element_set_no": 999,
        "meta_rev_at_epoch": 506,
        "meta_bstar": 0.0019516743,
        "meta_mean_motion_dot": 0.00116093,
        "meta_mean_motion_ddot": 0,
        "tle_line1": "1 66444U 25259Y   25339.59977952  .00116093  00000+0  19517-2 0  9996",
        "tle_line2": "2 66444  43.0010  88.9878 0001849 264.6914  95.3736 15.50633481  5066"
      },
      "geometry": {
        "type": "Point",
        "coordinates": [
          -126.03681999252656,
          23.690706254598815
        ]
      }
    }
  ]
}